[{"OBJECT_NAME":"COSMOS 2538","OBJECT_ID":"2019-039D","EPOCH":"2026-03-09T23:22:28.343424","MEAN_MOTION":15.19536029,"ECCENTRICITY":0.00437345,"INCLINATION":97.5929,"RA_OF_ASC_NODE":147.7512,"ARG_OF_PERICENTER":31.8471,"MEAN_ANOMALY":328.5393,"EPHEMERIS_TYPE":0,"CLASSIFICATION_TYPE":"U","NORAD_CAT_ID":44424,"ELEMENT_SET_NO":999,"REV_AT_EPOCH":36483,"BSTAR":0.00035711669,"MEAN_MOTION_DOT":7.713e-5,"MEAN_MOTION_DDOT":0},{"OBJECT_NAME":"STARLINK-3584","OBJECT_ID":"2022-022AK","EPOCH":"2026-03-09T02:24:09.732960","MEAN_MOTION":15.08849631,"ECCENTRICITY":0.00010739,"INCLINATION":53.2182,"RA_OF_ASC_NODE":1.7687,"ARG_OF_PERICENTER":82.5729,"MEAN_ANOMALY":277.5385,"EPHEMERIS_TYPE":0,"CLASSIFICATION_TYPE":"U","NORAD_CAT_ID":51885,"ELEMENT_SET_NO":999,"REV_AT_EPOCH":22315,"BSTAR":0.00028848419,"MEAN_MOTION_DOT":4.308e-5,"MEAN_MOTION_DDOT":0}]
